JINJUSAT-1B             
1 63210U 25052A   26068.66363707  .00019955  00000+0  68430-3 0  9998
2 63210  97.4113 325.4613 0005550  82.1930 277.9941 15.30194857 54866
STARLINK-35721          
1 67046U 25294S   26068.92927442  .00027165  00000+0  99268-3 0  9993
2 67046  42.9958  36.9030 0000683 147.3179 212.7715 15.27591650 14834
